<?xml version="1.0" encoding="UTF-8"?>
<ndm xmlns:xsi="http://www.w3.org/2001/XMLSchema-instance" xsi:noNamespaceSchemaLocation="https://sanaregistry.org/r/ndmxml_unqualified/ndmxml-2.0.0-master-2.0.xsd">
<omm id="CCSDS_OMM_VERS" version="2.0">
<header><CREATION_DATE/><ORIGINATOR/></header><body><segment><metadata><OBJECT_NAME>ONEWEB-0553</OBJECT_NAME><OBJECT_ID>2023-043K</OBJECT_ID><CENTER_NAME>EARTH</CENTER_NAME><REF_FRAME>TEME</REF_FRAME><TIME_SYSTEM>UTC</TIME_SYSTEM><MEAN_ELEMENT_THEORY>SGP4</MEAN_ELEMENT_THEORY></metadata><data><meanElements><EPOCH>2024-02-07T12:23:33.314784</EPOCH><MEAN_MOTION>13.16593104</MEAN_MOTION><ECCENTRICITY>.0001332</ECCENTRICITY><INCLINATION>87.9043</INCLINATION><RA_OF_ASC_NODE>40.0681</RA_OF_ASC_NODE><ARG_OF_PERICENTER>86.9323</ARG_OF_PERICENTER><MEAN_ANOMALY>273.1961</MEAN_ANOMALY></meanElements><tleParameters><EPHEMERIS_TYPE>0</EPHEMERIS_TYPE><CLASSIFICATION_TYPE>U</CLASSIFICATION_TYPE><NORAD_CAT_ID>56055</NORAD_CAT_ID><ELEMENT_SET_NO>999</ELEMENT_SET_NO><REV_AT_EPOCH>4663</REV_AT_EPOCH><BSTAR>.34364E-3</BSTAR><MEAN_MOTION_DOT>.144E-5</MEAN_MOTION_DOT><MEAN_MOTION_DDOT>0</MEAN_MOTION_DDOT></tleParameters></data></segment></body></omm>
<omm id="CCSDS_OMM_VERS" version="2.0">
<header><CREATION_DATE/><ORIGINATOR/></header><body><segment><metadata><OBJECT_NAME>ONEWEB-0554</OBJECT_NAME><OBJECT_ID>2023-043L</OBJECT_ID><CENTER_NAME>EARTH</CENTER_NAME><REF_FRAME>TEME</REF_FRAME><TIME_SYSTEM>UTC</TIME_SYSTEM><MEAN_ELEMENT_THEORY>SGP4</MEAN_ELEMENT_THEORY></metadata><data><meanElements><EPOCH>2024-02-07T12:05:19.660992</EPOCH><MEAN_MOTION>13.16593401</MEAN_MOTION><ECCENTRICITY>.000238</ECCENTRICITY><INCLINATION>87.9045</INCLINATION><RA_OF_ASC_NODE>40.0888</RA_OF_ASC_NODE><ARG_OF_PERICENTER>105.6166</ARG_OF_PERICENTER><MEAN_ANOMALY>254.5228</MEAN_ANOMALY></meanElements><tleParameters><EPHEMERIS_TYPE>0</EPHEMERIS_TYPE><CLASSIFICATION_TYPE>U</CLASSIFICATION_TYPE><NORAD_CAT_ID>56056</NORAD_CAT_ID><ELEMENT_SET_NO>999</ELEMENT_SET_NO><REV_AT_EPOCH>4661</REV_AT_EPOCH><BSTAR>.10737E-3</BSTAR><MEAN_MOTION_DOT>.54E-6</MEAN_MOTION_DOT><MEAN_MOTION_DDOT>0</MEAN_MOTION_DDOT></tleParameters></data></segment></body></omm>
<omm id="CCSDS_OMM_VERS" version="2.0">
<header><CREATION_DATE/><ORIGINATOR/></header><body><segment><metadata><OBJECT_NAME>ONEWEB-0555</OBJECT_NAME><OBJECT_ID>2023-043M</OBJECT_ID><CENTER_NAME>EARTH</CENTER_NAME><REF_FRAME>TEME</REF_FRAME><TIME_SYSTEM>UTC</TIME_SYSTEM><MEAN_ELEMENT_THEORY>SGP4</MEAN_ELEMENT_THEORY></metadata><data><meanElements><EPOCH>2024-02-07T11:10:35.997888</EPOCH><MEAN_MOTION>13.16595008</MEAN_MOTION><ECCENTRICITY>.0001215</ECCENTRICITY><INCLINATION>87.9045</INCLINATION><RA_OF_ASC_NODE>40.0710</RA_OF_ASC_NODE><ARG_OF_PERICENTER>106.8836</ARG_OF_PERICENTER><MEAN_ANOMALY>253.2428</MEAN_ANOMALY></meanElements><tleParameters><EPHEMERIS_TYPE>0</EPHEMERIS_TYPE><CLASSIFICATION_TYPE>U</CLASSIFICATION_TYPE><NORAD_CAT_ID>56057</NORAD_CAT_ID><ELEMENT_SET_NO>999</ELEMENT_SET_NO><REV_AT_EPOCH>4661</REV_AT_EPOCH><BSTAR>.24519E-3</BSTAR><MEAN_MOTION_DOT>.107E-5</MEAN_MOTION_DOT><MEAN_MOTION_DDOT>0</MEAN_MOTION_DDOT></tleParameters></data></segment></body></omm>
<omm id="CCSDS_OMM_VERS" version="2.0">
<header><CREATION_DATE/><ORIGINATOR/></header><body><segment><metadata><OBJECT_NAME>ONEWEB-0557</OBJECT_NAME><OBJECT_ID>2023-043N</OBJECT_ID><CENTER_NAME>EARTH</CENTER_NAME><REF_FRAME>TEME</REF_FRAME><TIME_SYSTEM>UTC</TIME_SYSTEM><MEAN_ELEMENT_THEORY>SGP4</MEAN_ELEMENT_THEORY></metadata><data><meanElements><EPOCH>2024-02-06T22:45:04.603680</EPOCH><MEAN_MOTION>13.16593683</MEAN_MOTION><ECCENTRICITY>.0001435</ECCENTRICITY><INCLINATION>87.9043</INCLINATION><RA_OF_ASC_NODE>40.2008</RA_OF_ASC_NODE><ARG_OF_PERICENTER>127.7529</ARG_OF_PERICENTER><MEAN_ANOMALY>232.3732</MEAN_ANOMALY></meanElements><tleParameters><EPHEMERIS_TYPE>0</EPHEMERIS_TYPE><CLASSIFICATION_TYPE>U</CLASSIFICATION_TYPE><NORAD_CAT_ID>56058</NORAD_CAT_ID><ELEMENT_SET_NO>999</ELEMENT_SET_NO><REV_AT_EPOCH>4563</REV_AT_EPOCH><BSTAR>.14029E-4</BSTAR><MEAN_MOTION_DOT>.18E-6</MEAN_MOTION_DOT><MEAN_MOTION_DDOT>0</MEAN_MOTION_DDOT></tleParameters></data></segment></body></omm>
<omm id="CCSDS_OMM_VERS" version="2.0">
<header><CREATION_DATE/><ORIGINATOR/></header><body><segment><metadata><OBJECT_NAME>ONEWEB-0558</OBJECT_NAME><OBJECT_ID>2023-043P</OBJECT_ID><CENTER_NAME>EARTH</CENTER_NAME><REF_FRAME>TEME</REF_FRAME><TIME_SYSTEM>UTC</TIME_SYSTEM><MEAN_ELEMENT_THEORY>SGP4</MEAN_ELEMENT_THEORY></metadata><data><meanElements><EPOCH>2024-02-07T02:14:10.612032</EPOCH><MEAN_MOTION>13.21825691</MEAN_MOTION><ECCENTRICITY>.000224</ECCENTRICITY><INCLINATION>87.9202</INCLINATION><RA_OF_ASC_NODE>55.3799</RA_OF_ASC_NODE><ARG_OF_PERICENTER>80.7996</ARG_OF_PERICENTER><MEAN_ANOMALY>279.3391</MEAN_ANOMALY></meanElements><tleParameters><EPHEMERIS_TYPE>0</EPHEMERIS_TYPE><CLASSIFICATION_TYPE>U</CLASSIFICATION_TYPE><NORAD_CAT_ID>56059</NORAD_CAT_ID><ELEMENT_SET_NO>999</ELEMENT_SET_NO><REV_AT_EPOCH>4539</REV_AT_EPOCH><BSTAR>.75663E-4</BSTAR><MEAN_MOTION_DOT>.44E-6</MEAN_MOTION_DOT><MEAN_MOTION_DDOT>0</MEAN_MOTION_DDOT></tleParameters></data></segment></body></omm>
<omm id="CCSDS_OMM_VERS" version="2.0">
<header><CREATION_DATE/><ORIGINATOR/></header><body><segment><metadata><OBJECT_NAME>ONEWEB-0559</OBJECT_NAME><OBJECT_ID>2023-043Q</OBJECT_ID><CENTER_NAME>EARTH</CENTER_NAME><REF_FRAME>TEME</REF_FRAME><TIME_SYSTEM>UTC</TIME_SYSTEM><MEAN_ELEMENT_THEORY>SGP4</MEAN_ELEMENT_THEORY></metadata><data><meanElements><EPOCH>2024-02-07T01:58:15.956832</EPOCH><MEAN_MOTION>13.21826665</MEAN_MOTION><ECCENTRICITY>.0002534</ECCENTRICITY><INCLINATION>87.9201</INCLINATION><RA_OF_ASC_NODE>55.3820</RA_OF_ASC_NODE><ARG_OF_PERICENTER>94.3178</ARG_OF_PERICENTER><MEAN_ANOMALY>265.8245</MEAN_ANOMALY></meanElements><tleParameters><EPHEMERIS_TYPE>0</EPHEMERIS_TYPE><CLASSIFICATION_TYPE>U</CLASSIFICATION_TYPE><NORAD_CAT_ID>56060</NORAD_CAT_ID><ELEMENT_SET_NO>999</ELEMENT_SET_NO><REV_AT_EPOCH>4540</REV_AT_EPOCH><BSTAR>.78719E-4</BSTAR><MEAN_MOTION_DOT>.46E-6</MEAN_MOTION_DOT><MEAN_MOTION_DDOT>0</MEAN_MOTION_DDOT></tleParameters></data></segment></body></omm>
<omm id="CCSDS_OMM_VERS" version="2.0">
<header><CREATION_DATE/><ORIGINATOR/></header><body><segment><metadata><OBJECT_NAME>ONEWEB-0566</OBJECT_NAME><OBJECT_ID>2023-043R</OBJECT_ID><CENTER_NAME>EARTH</CENTER_NAME><REF_FRAME>TEME</REF_FRAME><TIME_SYSTEM>UTC</TIME_SYSTEM><MEAN_ELEMENT_THEORY>SGP4</MEAN_ELEMENT_THEORY></metadata><data><meanElements><EPOCH>2024-02-07T01:49:12.435168</EPOCH><MEAN_MOTION>13.21821732</MEAN_MOTION><ECCENTRICITY>.0002576</ECCENTRICITY><INCLINATION>87.9199</INCLINATION><RA_OF_ASC_NODE>55.3843</RA_OF_ASC_NODE><ARG_OF_PERICENTER>74.7477</ARG_OF_PERICENTER><MEAN_ANOMALY>285.3942</MEAN_ANOMALY></meanElements><tleParameters><EPHEMERIS_TYPE>0</EPHEMERIS_TYPE><CLASSIFICATION_TYPE>U</CLASSIFICATION_TYPE><NORAD_CAT_ID>56061</NORAD_CAT_ID><ELEMENT_SET_NO>999</ELEMENT_SET_NO><REV_AT_EPOCH>4538</REV_AT_EPOCH><BSTAR>.67428E-3</BSTAR><MEAN_MOTION_DOT>.291E-5</MEAN_MOTION_DOT><MEAN_MOTION_DDOT>0</MEAN_MOTION_DDOT></tleParameters></data></segment></body></omm>
<omm id="CCSDS_OMM_VERS" version="2.0">
<header><CREATION_DATE/><ORIGINATOR/></header><body><segment><metadata><OBJECT_NAME>ONEWEB-0568</OBJECT_NAME><OBJECT_ID>2023-043S</OBJECT_ID><CENTER_NAME>EARTH</CENTER_NAME><REF_FRAME>TEME</REF_FRAME><TIME_SYSTEM>UTC</TIME_SYSTEM><MEAN_ELEMENT_THEORY>SGP4</MEAN_ELEMENT_THEORY></metadata><data><meanElements><EPOCH>2024-02-07T11:56:12.555456</EPOCH><MEAN_MOTION>13.16593873</MEAN_MOTION><ECCENTRICITY>.0001443</ECCENTRICITY><INCLINATION>87.9043</INCLINATION><RA_OF_ASC_NODE>40.0550</RA_OF_ASC_NODE><ARG_OF_PERICENTER>92.5848</ARG_OF_PERICENTER><MEAN_ANOMALY>267.5448</MEAN_ANOMALY></meanElements><tleParameters><EPHEMERIS_TYPE>0</EPHEMERIS_TYPE><CLASSIFICATION_TYPE>U</CLASSIFICATION_TYPE><NORAD_CAT_ID>56062</NORAD_CAT_ID><ELEMENT_SET_NO>999</ELEMENT_SET_NO><REV_AT_EPOCH>4663</REV_AT_EPOCH><BSTAR>.76512E-4</BSTAR><MEAN_MOTION_DOT>.42E-6</MEAN_MOTION_DOT><MEAN_MOTION_DDOT>0</MEAN_MOTION_DDOT></tleParameters></data></segment></body></omm>

</ndm>
