ONEWEB-0553             
1 56055U 23043K   24038.51635781  .00000144  00000+0  34364-3 0  9997
2 56055  87.9043  40.0681 0001332  86.9323 273.1961 13.16593104 46634
ONEWEB-0554             
1 56056U 23043L   24038.50369978  .00000054  00000+0  10737-3 0  9997
2 56056  87.9045  40.0888 0002380 105.6166 254.5228 13.16593401 46611
ONEWEB-0555             
1 56057U 23043M   24038.46569442  .00000107  00000+0  24519-3 0  9993
2 56057  87.9045  40.0710 0001215 106.8836 253.2428 13.16595008 46612
ONEWEB-0557             
1 56058U 23043N   24037.94796995  .00000018  00000+0  14029-4 0  9998
2 56058  87.9043  40.2008 0001435 127.7529 232.3732 13.16593683 45632
ONEWEB-0558             
1 56059U 23043P   24038.09317838  .00000044  00000+0  75663-4 0  9991
2 56059  87.9202  55.3799 0002240  80.7996 279.3391 13.21825691 45393
ONEWEB-0559             
1 56060U 23043Q   24038.08212913  .00000046  00000+0  78719-4 0  9997
2 56060  87.9201  55.3820 0002534  94.3178 265.8245 13.21826665 45400
ONEWEB-0566             
1 56061U 23043R   24038.07583837  .00000291  00000+0  67428-3 0  9999
2 56061  87.9199  55.3843 0002576  74.7477 285.3942 13.21821732 45380
ONEWEB-0568             
1 56062U 23043S   24038.49736754  .00000042  00000+0  76512-4 0  9993
2 56062  87.9043  40.0550 0001443  92.5848 267.5448 13.16593873 46635
